0 SL-12 R/B(2)
1 25629U 99005D   13280.07641650 -.00000115  00000-0  00000+0 0  1449
2 25629 018.6127 345.1926 5297401 037.0975 348.5592 01.89588317101424
0 SL-12 R/B(2)
1 25629U 99005D   13283.26059986 -.00000221  00000-0  00000+0 0  1457
2 25629 018.6120 344.8458 5297351 037.7471 001.7913 01.89589592101482
0 SL-12 R/B(2)
1 25629U 99005D   13283.77026949  .00000001  00000-0  10000-3 0  1456
2 25629 018.6196 344.7764 5297931 037.8689 349.6541 01.89586730101505
0 SL-12 R/B(2)
1 25629U 99005D   13286.43336245 -.00000247  00000-0  00000+0 0  1464
2 25629 018.6113 344.5005 5297336 038.3931 007.2362 01.89589375101545
0 SL-12 R/B(2)
1 25629U 99005D   13288.61884029 -.00000201  00000-0  00000+0 0  1475
2 25629 018.6108 344.2626 5297315 038.8371 058.8455 01.89588956101588
0 SL-12 R/B(2)
1 25629U 99005D   13293.28772138 -.00000252  00000-0  00000+0 0  1488
2 25629 018.6094 343.7537 5297334 039.7884 005.4203 01.89589882101675
